{"type": "FeatureCollection", "features": [ {"type": "Feature", "properties": {"norad_id": 66913, "name": "2025-284A", "group": "last-30-days", "lat": 45.57594912392521, "lon": -59.440112435145785, "alt_km": 502.60139200614594, "timestamp": "2025-12-12T03:50:51.179098+00:00", "meta": {"OBJECT_NAME": "2025-284A", "OBJECT_ID": "2025-284A", "EPOCH": "2025-12-11T14:36:46.539936", "MEAN_MOTION": 15.18932242, "ECCENTRICITY": 0.00120204, "INCLINATION": 80.4046, "RA_OF_ASC_NODE": 131.1983, "ARG_OF_PERICENTER": 208.0709, "MEAN_ANOMALY": 151.9872, "EPHEMERIS_TYPE": 0, "CLASSIFICATION_TYPE": "U", "NORAD_CAT_ID": 66913, "ELEMENT_SET_NO": 999, "REV_AT_EPOCH": 95, "BSTAR": 0.00070955263, "MEAN_MOTION_DOT": 0.00014878, "MEAN_MOTION_DDOT": 0}, "tle": {"line1": "1 66913U 25284A   25345.60887199  .00014878  00000+0  70955-3 0  9999", "line2": "2 66913  80.4046 131.1983 0012020 208.0709 151.9872 15.18932242   950"}}, "geometry": {"type": "Point", "coordinates": [-59.440112435145785, 45.57594912392521]}}, {"type": "Feature", "properties": {"norad_id": 66914, "name": "2025-284B", "group": "last-30-days", "lat": 43.35408943938152, "lon": -58.68952211337145, "alt_km": 507.76314388931314, "timestamp": "2025-12-12T03:50:51.179112+00:00", "meta": {"OBJECT_NAME": "2025-284B", "OBJECT_ID": "2025-284B", "EPOCH": "2025-12-11T16:11:01.058784", "MEAN_MOTION": 15.18886497, "ECCENTRICITY": 0.00082886, "INCLINATION": 80.4056, "RA_OF_ASC_NODE": 131.1161, "ARG_OF_PERICENTER": 250.3357, "MEAN_ANOMALY": 109.6976, "EPHEMERIS_TYPE": 0, "CLASSIFICATION_TYPE": "U", "NORAD_CAT_ID": 66914, "ELEMENT_SET_NO": 999, "REV_AT_EPOCH": 96, "BSTAR": 0.00069186792, "MEAN_MOTION_DOT": 0.00014474, "MEAN_MOTION_DDOT": 0}, "tle": {"line1": "1 66914U 25284B   25345.67431781  .00014474  00000+0  69187-3 0  9996", "line2": "2 66914  80.4056 131.1161 0008288 250.3357 109.6976 15.18886497   966"}}, "geometry": {"type": "Point", "coordinates": [-58.68952211337145, 43.35408943938152]}}, {"type": "Feature", "properties": {"norad_id": 66915, "name": "HULIANWANG DIGUI-105", "group": "last-30-days", "lat": 31.359438293012378, "lon": -91.1456918106439, "alt_km": 877.328912744757, "timestamp": "2025-12-12T03:50:51.179124+00:00", "meta": {"OBJECT_NAME": "HULIANWANG DIGUI-105", "OBJECT_ID": "2025-285A", "EPOCH": "2025-12-11T16:57:14.807232", "MEAN_MOTION": 14.04909251, "ECCENTRICITY": 0.0007691, "INCLINATION": 50.0025, "RA_OF_ASC_NODE": 121.4807, "ARG_OF_PERICENTER": 282.4913, "MEAN_ANOMALY": 77.5131, "EPHEMERIS_TYPE": 0, "CLASSIFICATION_TYPE": "U", "NORAD_CAT_ID": 66915, "ELEMENT_SET_NO": 999, "REV_AT_EPOCH": 76, "BSTAR": 0.00020275, "MEAN_MOTION_DOT": 1.76e-06, "MEAN_MOTION_DDOT": 0}, "tle": {"line1": "1 66915U 25285A   25345.70642138  .00000176  00000+0  20275-3 0  9991", "line2": "2 66915  50.0025 121.4807 0007691 282.4913  77.5131 14.04909251   768"}}, "geometry": {"type": "Point", "coordinates": [-91.1456918106439, 31.359438293012378]}}, {"type": "Feature", "properties": {"norad_id": 66916, "name": "HULIANWANG DIGUI-106", "group": "last-30-days", "lat": 29.91903542915002, "lon": -89.25916204940712, "alt_km": 874.4405283899678, "timestamp": "2025-12-12T03:50:51.179134+00:00", "meta": {"OBJECT_NAME": "HULIANWANG DIGUI-106", "OBJECT_ID": "2025-285B", "EPOCH": "2025-12-11T15:14:31.596288", "MEAN_MOTION": 14.05514241, "ECCENTRICITY": 0.00069608, "INCLINATION": 50.0047, "RA_OF_ASC_NODE": 121.7746, "ARG_OF_PERICENTER": 273.6579, "MEAN_ANOMALY": 86.3531, "EPHEMERIS_TYPE": 0, "CLASSIFICATION_TYPE": "U", "NORAD_CAT_ID": 66916, "ELEMENT_SET_NO": 999, "REV_AT_EPOCH": 75, "BSTAR": 0.00021176158, "MEAN_MOTION_DOT": 1.94e-06, "MEAN_MOTION_DDOT": 0}, "tle": {"line1": "1 66916U 25285B   25345.63508792  .00000194  00000+0  21176-3 0  9992", "line2": "2 66916  50.0047 121.7746 0006960 273.6579  86.3531 14.05514241   759"}}, "geometry": {"type": "Point", "coordinates": [-89.25916204940712, 29.91903542915002]}}, {"type": "Feature", "properties": {"norad_id": 66917, "name": "HULIANWANG DIGUI-107", "group": "last-30-days", "lat": 28.934082916188498, "lon": -88.03172354665858, "alt_km": 875.0812997640796, "timestamp": "2025-12-12T03:50:51.179144+00:00", "meta": {"OBJECT_NAME": "HULIANWANG DIGUI-107", "OBJECT_ID": "2025-285C", "EPOCH": "2025-12-11T15:14:08.831616", "MEAN_MOTION": 14.05580171, "ECCENTRICITY": 0.00075617, "INCLINATION": 50.0012, "RA_OF_ASC_NODE": 121.7696, "ARG_OF_PERICENTER": 281.4609, "MEAN_ANOMALY": 78.5447, "EPHEMERIS_TYPE": 0, "CLASSIFICATION_TYPE": "U", "NORAD_CAT_ID": 66917, "ELEMENT_SET_NO": 999, "REV_AT_EPOCH": 75, "BSTAR": 1.1642511e-05, "MEAN_MOTION_DOT": -1.33e-06, "MEAN_MOTION_DDOT": 0}, "tle": {"line1": "1 66917U 25285C   25345.63482444 -.00000133  00000+0  11643-4 0  9991", "line2": "2 66917  50.0012 121.7696 0007561 281.4609  78.5447 14.05580171   759"}}, "geometry": {"type": "Point", "coordinates": [-88.03172354665858, 28.934082916188498]}}, {"type": "Feature", "properties": {"norad_id": 66918, "name": "HULIANWANG DIGUI-108", "group": "last-30-days", "lat": 27.180992348996558, "lon": -85.91798064220475, "alt_km": 873.8959716793006, "timestamp": "2025-12-12T03:50:51.179154+00:00", "meta": {"OBJECT_NAME": "HULIANWANG DIGUI-108", "OBJECT_ID": "2025-285D", "EPOCH": "2025-12-11T15:13:29.402112", "MEAN_MOTION": 14.05704786, "ECCENTRICITY": 0.00064654, "INCLINATION": 50.0034, "RA_OF_ASC_NODE": 121.7693, "ARG_OF_PERICENTER": 276.5269, "MEAN_ANOMALY": 83.49, "EPHEMERIS_TYPE": 0, "CLASSIFICATION_TYPE": "U", "NORAD_CAT_ID": 66918, "ELEMENT_SET_NO": 999, "REV_AT_EPOCH": 75, "BSTAR": 0.00020895778, "MEAN_MOTION_DOT": 1.91e-06, "MEAN_MOTION_DDOT": 0}, "tle": {"line1": "1 66918U 25285D   25345.63436808  .00000191  00000+0  20896-3 0  9997", "line2": "2 66918  50.0034 121.7693 0006465 276.5269  83.4900 14.05704786   759"}}, "geometry": {"type": "Point", "coordinates": [-85.91798064220475, 27.180992348996558]}}, {"type": "Feature", "properties": {"norad_id": 66919, "name": "HULIANWANG DIGUI-109", "group": "last-30-days", "lat": 26.957711354542973, "lon": -85.65134467431248, "alt_km": 875.3273240257122, "timestamp": "2025-12-12T03:50:51.179164+00:00", "meta": {"OBJECT_NAME": "HULIANWANG DIGUI-109", "OBJECT_ID": "2025-285E", "EPOCH": "2025-12-11T15:13:24.040128", "MEAN_MOTION": 14.0571584, "ECCENTRICITY": 0.00078923, "INCLINATION": 50.0058, "RA_OF_ASC_NODE": 121.7721, "ARG_OF_PERICENTER": 287.899, "MEAN_ANOMALY": 72.1054, "EPHEMERIS_TYPE": 0, "CLASSIFICATION_TYPE": "U", "NORAD_CAT_ID": 66919, "ELEMENT_SET_NO": 999, "REV_AT_EPOCH": 75, "BSTAR": 9.81654e-07, "MEAN_MOTION_DOT": -1.51e-06, "MEAN_MOTION_DDOT": 0}, "tle": {"line1": "1 66919U 25285E   25345.63430602 -.00000151  00000+0  98165-6 0  9998", "line2": "2 66919  50.0058 121.7721 0007892 287.8990  72.1054 14.05715840   757"}}, "geometry": {"type": "Point", "coordinates": [-85.65134467431248, 26.957711354542973]}}, {"type": "Feature", "properties": {"norad_id": 66920, "name": "HULIANWANG DIGUI-110", "group": "last-30-days", "lat": 25.029319683212073, "lon": -83.45315024675061, "alt_km": 873.665920769301, "timestamp": "2025-12-12T03:50:51.179174+00:00", "meta": {"OBJECT_NAME": "HULIANWANG DIGUI-110", "OBJECT_ID": "2025-285F", "EPOCH": "2025-12-11T15:12:41.831136", "MEAN_MOTION": 14.05850638, "ECCENTRICITY": 0.00058217, "INCLINATION": 50.0091, "RA_OF_ASC_NODE": 121.773, "ARG_OF_PERICENTER": 284.8167, "MEAN_ANOMALY": 75.2093, "EPHEMERIS_TYPE": 0, "CLASSIFICATION_TYPE": "U", "NORAD_CAT_ID": 66920, "ELEMENT_SET_NO": 999, "REV_AT_EPOCH": 75, "BSTAR": 0.0001975267, "MEAN_MOTION_DOT": 1.73e-06, "MEAN_MOTION_DDOT": 0}, "tle": {"line1": "1 66920U 25285F   25345.63381749  .00000173  00000+0  19753-3 0  9993", "line2": "2 66920  50.0091 121.7730 0005821 284.8167  75.2093 14.05850638   751"}}, "geometry": {"type": "Point", "coordinates": [-83.45315024675061, 25.029319683212073]}}, {"type": "Feature", "properties": {"norad_id": 66921, "name": "HULIANWANG DIGUI-111", "group": "last-30-days", "lat": 24.522013324098523, "lon": -82.89081068286335, "alt_km": 874.5734085396844, "timestamp": "2025-12-12T03:50:51.179186+00:00", "meta": {"OBJECT_NAME": "HULIANWANG DIGUI-111", "OBJECT_ID": "2025-285G", "EPOCH": "2025-12-11T15:12:30.512736", "MEAN_MOTION": 14.05885855, "ECCENTRICITY": 0.00069674, "INCLINATION": 50.0107, "RA_OF_ASC_NODE": 121.7743, "ARG_OF_PERICENTER": 291.406, "MEAN_ANOMALY": 68.6102, "EPHEMERIS_TYPE": 0, "CLASSIFICATION_TYPE": "U", "NORAD_CAT_ID": 66921, "ELEMENT_SET_NO": 999, "REV_AT_EPOCH": 75, "BSTAR": 0.00033536205, "MEAN_MOTION_DOT": 4e-06, "MEAN_MOTION_DDOT": 0}, "tle": {"line1": "1 66921U 25285G   25345.63368649  .00000400  00000+0  33536-3 0  9996", "line2": "2 66921  50.0107 121.7743 0006967 291.4060  68.6102 14.05885855   758"}}, "geometry": {"type": "Point", "coordinates": [-82.89081068286335, 24.522013324098523]}}, {"type": "Feature", "properties": {"norad_id": 66922, "name": "HULIANWANG DIGUI-112", "group": "last-30-days", "lat": 22.826311967905927, "lon": -81.07601893669347, "alt_km": 874.6229582387705, "timestamp": "2025-12-12T03:50:51.179197+00:00", "meta": {"OBJECT_NAME": "HULIANWANG DIGUI-112", "OBJECT_ID": "2025-285H", "EPOCH": "2025-12-11T15:11:53.765088", "MEAN_MOTION": 14.05999431, "ECCENTRICITY": 0.00069636, "INCLINATION": 50.008, "RA_OF_ASC_NODE": 121.7682, "ARG_OF_PERICENTER": 297.459, "MEAN_ANOMALY": 62.5607, "EPHEMERIS_TYPE": 0, "CLASSIFICATION_TYPE": "U", "NORAD_CAT_ID": 66922, "ELEMENT_SET_NO": 999, "REV_AT_EPOCH": 75, "BSTAR": 4.179939e-06, "MEAN_MOTION_DOT": -1.45e-06, "MEAN_MOTION_DDOT": 0}, "tle": {"line1": "1 66922U 25285H   25345.63326117 -.00000145  00000+0  41799-5 0  9990", "line2": "2 66922  50.0080 121.7682 0006963 297.4590  62.5607 14.05999431   750"}}, "geometry": {"type": "Point", "coordinates": [-81.07601893669347, 22.826311967905927]}}]}